{"type": "FeatureCollection", "features": [ {"type": "Feature", "properties": {"norad_id": 38797, "name": "FENGYUN 1C DEB", "group": "fengyun-1c-debris", "lat": 26.4326361509456, "lon": -135.35900253818275, "alt_km": 1163.3444052828454, "timestamp": "2025-12-02T06:27:53.303450+00:00", "meta": {"OBJECT_NAME": "FENGYUN 1C DEB", "OBJECT_ID": "1999-025EUM", "EPOCH": "2025-11-30T10:14:26.576736", "MEAN_MOTION": 13.61600271, "ECCENTRICITY": 0.0245151, "INCLINATION": 99.4842, "RA_OF_ASC_NODE": 227.6164, "ARG_OF_PERICENTER": 252.8829, "MEAN_ANOMALY": 104.5333, "EPHEMERIS_TYPE": 0, "CLASSIFICATION_TYPE": "U", "NORAD_CAT_ID": 38797, "ELEMENT_SET_NO": 999, "REV_AT_EPOCH": 59115, "BSTAR": 0.00033810618, "MEAN_MOTION_DOT": 2.71e-06, "MEAN_MOTION_DDOT": 0}, "tle": {"line1": "1 38797U 99025EUM 25334.42669649  .00000271  00000+0  33811-3 0  9990", "line2": "2 38797  99.4842 227.6164 0245151 252.8829 104.5333 13.61600271591151"}}, "geometry": {"type": "Point", "coordinates": [-135.35900253818275, 26.4326361509456]}}, {"type": "Feature", "properties": {"norad_id": 38799, "name": "FENGYUN 1C DEB", "group": "fengyun-1c-debris", "lat": -3.640630117842198, "lon": 52.305594538601916, "alt_km": 627.8075997319138, "timestamp": "2025-12-02T06:27:53.303460+00:00", "meta": {"OBJECT_NAME": "FENGYUN 1C DEB", "OBJECT_ID": "1999-025EUP", "EPOCH": "2025-11-26T11:13:58.529856", "MEAN_MOTION": 14.48569792, "ECCENTRICITY": 0.01649657, "INCLINATION": 98.4067, "RA_OF_ASC_NODE": 45.9896, "ARG_OF_PERICENTER": 40.0513, "MEAN_ANOMALY": 321.2709, "EPHEMERIS_TYPE": 0, "CLASSIFICATION_TYPE": "U", "NORAD_CAT_ID": 38799, "ELEMENT_SET_NO": 999, "REV_AT_EPOCH": 63803, "BSTAR": 0.00099755644, "MEAN_MOTION_DOT": 4.406e-05, "MEAN_MOTION_DDOT": 0}, "tle": {"line1": "1 38799U 99025EUP 25330.46803854  .00004406  00000+0  99756-3 0  9994", "line2": "2 38799  98.4067  45.9896 0164965  40.0513 321.2709 14.48569792638036"}}, "geometry": {"type": "Point", "coordinates": [52.305594538601916, -3.640630117842198]}}, {"type": "Feature", "properties": {"norad_id": 38801, "name": "FENGYUN 1C DEB", "group": "fengyun-1c-debris", "lat": 79.10364956848028, "lon": -102.71974709162681, "alt_km": 725.8786468156941, "timestamp": "2025-12-02T06:27:53.303470+00:00", "meta": {"OBJECT_NAME": "FENGYUN 1C DEB", "OBJECT_ID": "1999-025EUR", "EPOCH": "2025-11-30T22:34:32.153088", "MEAN_MOTION": 14.2473338, "ECCENTRICITY": 0.03480153, "INCLINATION": 98.3753, "RA_OF_ASC_NODE": 26.0769, "ARG_OF_PERICENTER": 26.6828, "MEAN_ANOMALY": 95.3295, "EPHEMERIS_TYPE": 0, "CLASSIFICATION_TYPE": "U", "NORAD_CAT_ID": 38801, "ELEMENT_SET_NO": 999, "REV_AT_EPOCH": 64192, "BSTAR": 0.00055786382, "MEAN_MOTION_DOT": 2.4e-05, "MEAN_MOTION_DDOT": 0}, "tle": {"line1": "1 38801U 99025EUR 25334.94064992  .00002400  00000+0  55786-3 0  9994", "line2": "2 38801  98.3753  26.0769 0348015  26.6828  95.3295 14.24733380641920"}}, "geometry": {"type": "Point", "coordinates": [-102.71974709162681, 79.10364956848028]}}, {"type": "Feature", "properties": {"norad_id": 38803, "name": "FENGYUN 1C DEB", "group": "fengyun-1c-debris", "lat": 5.304620338972637, "lon": -21.14800860447264, "alt_km": 792.7429661924443, "timestamp": "2025-12-02T06:27:53.303480+00:00", "meta": {"OBJECT_NAME": "FENGYUN 1C DEB", "OBJECT_ID": "1999-025EUT", "EPOCH": "2025-11-29T10:57:44.778528", "MEAN_MOTION": 14.23477761, "ECCENTRICITY": 0.00644071, "INCLINATION": 99.1375, "RA_OF_ASC_NODE": 336.7888, "ARG_OF_PERICENTER": 74.1152, "MEAN_ANOMALY": 286.7111, "EPHEMERIS_TYPE": 0, "CLASSIFICATION_TYPE": "U", "NORAD_CAT_ID": 38803, "ELEMENT_SET_NO": 999, "REV_AT_EPOCH": 60023, "BSTAR": 0.0019660529, "MEAN_MOTION_DOT": 4.521e-05, "MEAN_MOTION_DDOT": 0}, "tle": {"line1": "1 38803U 99025EUT 25333.45676827  .00004521  00000+0  19661-2 0  9994", "line2": "2 38803  99.1375 336.7888 0064407  74.1152 286.7111 14.23477761600231"}}, "geometry": {"type": "Point", "coordinates": [-21.14800860447264, 5.304620338972637]}}, {"type": "Feature", "properties": {"norad_id": 38809, "name": "FENGYUN 1C DEB", "group": "fengyun-1c-debris", "lat": 15.409441707106847, "lon": 169.1549574403955, "alt_km": 988.6735069889783, "timestamp": "2025-12-02T06:27:53.303490+00:00", "meta": {"OBJECT_NAME": "FENGYUN 1C DEB", "OBJECT_ID": "1999-025EUZ", "EPOCH": "2025-11-30T06:16:57.351360", "MEAN_MOTION": 14.1810945, "ECCENTRICITY": 0.0223582, "INCLINATION": 98.5903, "RA_OF_ASC_NODE": 344.8226, "ARG_OF_PERICENTER": 4.0762, "MEAN_ANOMALY": 356.2169, "EPHEMERIS_TYPE": 0, "CLASSIFICATION_TYPE": "U", "NORAD_CAT_ID": 38809, "ELEMENT_SET_NO": 999, "REV_AT_EPOCH": 69029, "BSTAR": 0.00062054472, "MEAN_MOTION_DOT": 1.585e-05, "MEAN_MOTION_DDOT": 0}, "tle": {"line1": "1 38809U 99025EUZ 25334.26177490  .00001585  00000+0  62054-3 0  9994", "line2": "2 38809  98.5903 344.8226 0223582   4.0762 356.2169 14.18109450690295"}}, "geometry": {"type": "Point", "coordinates": [169.1549574403955, 15.409441707106847]}}, {"type": "Feature", "properties": {"norad_id": 38813, "name": "FENGYUN 1C DEB", "group": "fengyun-1c-debris", "lat": -10.560567162071289, "lon": 151.09125664131423, "alt_km": 826.1922740091923, "timestamp": "2025-12-02T06:27:53.303500+00:00", "meta": {"OBJECT_NAME": "FENGYUN 1C DEB", "OBJECT_ID": "1999-025EVD", "EPOCH": "2025-12-01T17:44:02.872032", "MEAN_MOTION": 14.20124404, "ECCENTRICITY": 0.0006131, "INCLINATION": 99.3455, "RA_OF_ASC_NODE": 332.2907, "ARG_OF_PERICENTER": 143.0544, "MEAN_ANOMALY": 217.1054, "EPHEMERIS_TYPE": 0, "CLASSIFICATION_TYPE": "U", "NORAD_CAT_ID": 38813, "ELEMENT_SET_NO": 999, "REV_AT_EPOCH": 48094, "BSTAR": 0.00057863, "MEAN_MOTION_DOT": 1.185e-05, "MEAN_MOTION_DDOT": 0}, "tle": {"line1": "1 38813U 99025EVD 25335.73892213  .00001185  00000+0  57863-3 0  9997", "line2": "2 38813  99.3455 332.2907 0006131 143.0544 217.1054 14.20124404480945"}}, "geometry": {"type": "Point", "coordinates": [151.09125664131423, -10.560567162071289]}}, {"type": "Feature", "properties": {"norad_id": 38817, "name": "FENGYUN 1C DEB", "group": "fengyun-1c-debris", "lat": 15.046440342756709, "lon": -154.42657916632677, "alt_km": 920.8657771439248, "timestamp": "2025-12-02T06:27:53.303509+00:00", "meta": {"OBJECT_NAME": "FENGYUN 1C DEB", "OBJECT_ID": "1999-025EVH", "EPOCH": "2025-11-30T20:47:11.334624", "MEAN_MOTION": 13.57627755, "ECCENTRICITY": 0.02906314, "INCLINATION": 98.6006, "RA_OF_ASC_NODE": 206.6748, "ARG_OF_PERICENTER": 75.2363, "MEAN_ANOMALY": 288.079, "EPHEMERIS_TYPE": 0, "CLASSIFICATION_TYPE": "U", "NORAD_CAT_ID": 38817, "ELEMENT_SET_NO": 999, "REV_AT_EPOCH": 65673, "BSTAR": 0.0020990615, "MEAN_MOTION_DOT": 1.95e-05, "MEAN_MOTION_DDOT": 0}, "tle": {"line1": "1 38817U 99025EVH 25334.86610341  .00001950  00000+0  20991-2 0  9995", "line2": "2 38817  98.6006 206.6748 0290631  75.2363 288.0790 13.57627755656737"}}, "geometry": {"type": "Point", "coordinates": [-154.42657916632677, 15.046440342756709]}}, {"type": "Feature", "properties": {"norad_id": 38818, "name": "FENGYUN 1C DEB", "group": "fengyun-1c-debris", "lat": 77.53678232114574, "lon": -105.75391413683579, "alt_km": 698.8708249914198, "timestamp": "2025-12-02T06:27:53.303519+00:00", "meta": {"OBJECT_NAME": "FENGYUN 1C DEB", "OBJECT_ID": "1999-025EVJ", "EPOCH": "2025-11-27T09:30:24.153696", "MEAN_MOTION": 14.39418793, "ECCENTRICITY": 0.00885007, "INCLINATION": 98.3025, "RA_OF_ASC_NODE": 28.1739, "ARG_OF_PERICENTER": 145.1281, "MEAN_ANOMALY": 276.4662, "EPHEMERIS_TYPE": 0, "CLASSIFICATION_TYPE": "U", "NORAD_CAT_ID": 38818, "ELEMENT_SET_NO": 999, "REV_AT_EPOCH": 67027, "BSTAR": 0.00050962146, "MEAN_MOTION_DOT": 1.618e-05, "MEAN_MOTION_DDOT": 0}, "tle": {"line1": "1 38818U 99025EVJ 25331.39611289  .00001618  00000+0  50962-3 0  9996", "line2": "2 38818  98.3025  28.1739 0088500 145.1281 276.4662 14.39418793670274"}}, "geometry": {"type": "Point", "coordinates": [-105.75391413683579, 77.53678232114574]}}, {"type": "Feature", "properties": {"norad_id": 38819, "name": "FENGYUN 1C DEB", "group": "fengyun-1c-debris", "lat": 78.96831102721805, "lon": -159.5679160298719, "alt_km": 855.1745372391842, "timestamp": "2025-12-02T06:27:53.303532+00:00", "meta": {"OBJECT_NAME": "FENGYUN 1C DEB", "OBJECT_ID": "1999-025EVK", "EPOCH": "2025-11-30T19:03:47.354112", "MEAN_MOTION": 14.19336653, "ECCENTRICITY": 0.00792799, "INCLINATION": 98.6177, "RA_OF_ASC_NODE": 327.9316, "ARG_OF_PERICENTER": 229.2227, "MEAN_ANOMALY": 255.6081, "EPHEMERIS_TYPE": 0, "CLASSIFICATION_TYPE": "U", "NORAD_CAT_ID": 38819, "ELEMENT_SET_NO": 999, "REV_AT_EPOCH": 63308, "BSTAR": 0.00044451105, "MEAN_MOTION_DOT": 9.2e-06, "MEAN_MOTION_DDOT": 0}, "tle": {"line1": "1 38819U 99025EVK 25334.79429808  .00000920  00000+0  44451-3 0  9999", "line2": "2 38819  98.6177 327.9316 0079279 229.2227 255.6081 14.19336653633088"}}, "geometry": {"type": "Point", "coordinates": [-159.5679160298719, 78.96831102721805]}}, {"type": "Feature", "properties": {"norad_id": 38824, "name": "FENGYUN 1C DEB", "group": "fengyun-1c-debris", "lat": -34.19747555175777, "lon": 115.81274018735988, "alt_km": 856.9574221914763, "timestamp": "2025-12-02T06:27:53.303542+00:00", "meta": {"OBJECT_NAME": "FENGYUN 1C DEB", "OBJECT_ID": "1999-025EVQ", "EPOCH": "2025-11-20T14:24:21.461760", "MEAN_MOTION": 14.13875773, "ECCENTRICITY": 0.00960414, "INCLINATION": 99.2955, "RA_OF_ASC_NODE": 97.2934, "ARG_OF_PERICENTER": 263.2679, "MEAN_ANOMALY": 95.7556, "EPHEMERIS_TYPE": 0, "CLASSIFICATION_TYPE": "U", "NORAD_CAT_ID": 38824, "ELEMENT_SET_NO": 999, "REV_AT_EPOCH": 68824, "BSTAR": 0.0027703315, "MEAN_MOTION_DOT": 5.443e-05, "MEAN_MOTION_DDOT": 0}, "tle": {"line1": "1 38824U 99025EVQ 25324.60024840  .00005443  00000+0  27703-2 0  9996", "line2": "2 38824  99.2955  97.2934 0096041 263.2679  95.7556 14.13875773688246"}}, "geometry": {"type": "Point", "coordinates": [115.81274018735988, -34.19747555175777]}}]}